{
    "links": {
        "self": "http://www.neowsapp.com/rest/v1/neo/3770986?api_key=iIulBulltgU6a56xZRHN4H3l9WmuAYTsLGpBGhQ2"
    },
    "id": "3770986",
    "neo_reference_id": "3770986",
    "name": "(2017 EG1)",
    "designation": "2017 EG1",
    "nasa_jpl_url": "http://ssd.jpl.nasa.gov/sbdb.cgi?sstr=3770986",
    "absolute_magnitude_h": 27.5,
    "estimated_diameter": {
        "kilometers": {
            "estimated_diameter_min": 0.008405334,
            "estimated_diameter_max": 0.0187948982
        },
        "meters": {
            "estimated_diameter_min": 8.4053340207,
            "estimated_diameter_max": 18.7948982439
        },
        "miles": {
            "estimated_diameter_min": 0.0052228308,
            "estimated_diameter_max": 0.0116786047
        },
        "feet": {
            "estimated_diameter_min": 27.5765560686,
            "estimated_diameter_max": 61.6630539546
        }
    },
    "is_potentially_hazardous_asteroid": false,
    "close_approach_data": [
        {
            "close_approach_date": "1983-05-02",
            "close_approach_date_full": "1983-May-02 03:36",
            "epoch_date_close_approach": 420694560000,
            "relative_velocity": {
                "kilometers_per_second": "17.7084980044",
                "kilometers_per_hour": "63750.5928157234",
                "miles_per_hour": "39612.1391859699"
            },
            "miss_distance": {
                "astronomical": "0.3802402849",
                "lunar": "147.9134708261",
                "kilometers": "56883136.709233163",
                "miles": "35345542.1565491294"
            },
            "orbiting_body": "Earth"
        },
        {
            "close_approach_date": "2017-03-03",
            "close_approach_date_full": "2017-Mar-03 07:07",
            "epoch_date_close_approach": 1488524820000,
            "relative_velocity": {
                "kilometers_per_second": "6.1161982611",
                "kilometers_per_hour": "22018.3137398705",
                "miles_per_hour": "13681.323890199"
            },
            "miss_distance": {
                "astronomical": "0.0113611106",
                "lunar": "4.4194720234",
                "kilometers": "1699597.946594422",
                "miles": "1056081.1928781436"
            },
            "orbiting_body": "Earth"
        }
    ],
    "orbital_data": {
        "orbit_id": "2",
        "orbit_determination_date": "2017-04-06 08:19:41",
        "first_observation_date": "2017-03-04",
        "last_observation_date": "2017-03-06",
        "data_arc_in_days": 2,
        "observations_used": 12,
        "orbit_uncertainty": "8",
        "minimum_orbit_intersection": ".0113155",
        "jupiter_tisserand_invariant": "3.923",
        "epoch_osculation": "2457817.5",
        "eccentricity": ".447942328105795",
        "semi_major_axis": "1.813570513925559",
        "inclination": "3.300943336762666",
        "ascending_node_longitude": "157.1769828493022",
        "orbital_period": "892.0723861602094",
        "perihelion_distance": "1.001195515733721",
        "perihelion_argument": "7.232476374997029",
        "aphelion_distance": "2.625945512117397",
        "perihelion_time": "2457817.299643414009",
        "mean_anomaly": ".08085484101489304",
        "mean_motion": ".4035546953196988",
        "equinox": "J2000",
        "orbit_class": {
            "orbit_class_type": "APO",
            "orbit_class_description": "Near-Earth asteroid orbits which cross the Earth’s orbit similar to that of 1862 Apollo",
            "orbit_class_range": "a (semi-major axis) > 1.0 AU; q (perihelion) < 1.017 AU"
        }
    },
    "is_sentry_object": false
}